{
    "links": {
        "self": "http://www.neowsapp.com/rest/v1/neo/3831615?api_key=iIulBulltgU6a56xZRHN4H3l9WmuAYTsLGpBGhQ2"
    },
    "id": "3831615",
    "neo_reference_id": "3831615",
    "name": "(2018 TN3)",
    "designation": "2018 TN3",
    "nasa_jpl_url": "http://ssd.jpl.nasa.gov/sbdb.cgi?sstr=3831615",
    "absolute_magnitude_h": 28.2,
    "estimated_diameter": {
        "kilometers": {
            "estimated_diameter_min": 0.0060891262,
            "estimated_diameter_max": 0.0136157002
        },
        "meters": {
            "estimated_diameter_min": 6.0891262211,
            "estimated_diameter_max": 13.6157001539
        },
        "miles": {
            "estimated_diameter_min": 0.0037836064,
            "estimated_diameter_max": 0.0084604012
        },
        "feet": {
            "estimated_diameter_min": 19.9774488711,
            "estimated_diameter_max": 44.6709336928
        }
    },
    "is_potentially_hazardous_asteroid": false,
    "close_approach_data": [
        {
            "close_approach_date": "2018-10-10",
            "close_approach_date_full": "2018-Oct-10 10:21",
            "epoch_date_close_approach": 1539166860000,
            "relative_velocity": {
                "kilometers_per_second": "7.2688282589",
                "kilometers_per_hour": "26167.781731938",
                "miles_per_hour": "16259.64193227"
            },
            "miss_distance": {
                "astronomical": "0.0171424386",
                "lunar": "6.6684086154",
                "kilometers": "2564472.301165782",
                "miles": "1593489.1968685116"
            },
            "orbiting_body": "Earth"
        },
        {
            "close_approach_date": "2023-12-23",
            "close_approach_date_full": "2023-Dec-23 00:54",
            "epoch_date_close_approach": 1703292840000,
            "relative_velocity": {
                "kilometers_per_second": "15.8598760238",
                "kilometers_per_hour": "57095.553685653",
                "miles_per_hour": "35476.9566776214"
            },
            "miss_distance": {
                "astronomical": "0.2906338405",
                "lunar": "113.0565639545",
                "kilometers": "43478203.488719735",
                "miles": "27016102.894552943"
            },
            "orbiting_body": "Earth"
        },
        {
            "close_approach_date": "2122-12-21",
            "close_approach_date_full": "2122-Dec-21 15:28",
            "epoch_date_close_approach": 4827310080000,
            "relative_velocity": {
                "kilometers_per_second": "14.3109483637",
                "kilometers_per_hour": "51519.4141092253",
                "miles_per_hour": "32012.1603947017"
            },
            "miss_distance": {
                "astronomical": "0.2437148106",
                "lunar": "94.8050613234",
                "kilometers": "36459216.553213422",
                "miles": "22654706.6534603436"
            },
            "orbiting_body": "Earth"
        }
    ],
    "orbital_data": {
        "orbit_id": "2",
        "orbit_determination_date": "2018-10-10 06:26:19",
        "first_observation_date": "2018-10-06",
        "last_observation_date": "2018-10-10",
        "data_arc_in_days": 4,
        "observations_used": 28,
        "orbit_uncertainty": "7",
        "minimum_orbit_intersection": ".0114142",
        "jupiter_tisserand_invariant": "3.854",
        "epoch_osculation": "2459000.5",
        "eccentricity": ".469805946147009",
        "semi_major_axis": "1.858769888917221",
        "inclination": "2.470234247824026",
        "ascending_node_longitude": "188.9486038762252",
        "orbital_period": "925.6288231694609",
        "perihelion_distance": ".9855087425848953",
        "perihelion_argument": "211.8663581807936",
        "aphelion_distance": "2.732031035249547",
        "perihelion_time": "2459346.925463227542",
        "mean_anomaly": "225.266547842706",
        "mean_motion": ".3889247946788412",
        "equinox": "J2000",
        "orbit_class": {
            "orbit_class_type": "APO",
            "orbit_class_description": "Near-Earth asteroid orbits which cross the Earth’s orbit similar to that of 1862 Apollo",
            "orbit_class_range": "a (semi-major axis) > 1.0 AU; q (perihelion) < 1.017 AU"
        }
    },
    "is_sentry_object": false
}